     2              NAVIGATION DATA                         RINEX VERSION / TYPE
CCRINEXN V1.6.0 UX  CDDIS               08-OCT-22 07:53     PGM / RUN BY / DATE 
IGS BROADCAST EPHEMERIS FILE                                COMMENT             
    0.2701D-07  0.7451D-08 -0.1192D-06  0.0000D+00          ION ALPHA           
    0.1352D+06 -0.1638D+05 -0.2621D+06  0.6554D+05          ION BETA            
    0.931322574615D-09 0.532907051820D-14   147456     2231 DELTA-UTC: A0,A1,T,W
    18                                                      LEAP SECONDS        
                                                            END OF HEADER       
 6 22 10  8  8  0  0.0 0.484949443489D-03 0.112549969344D-10 0.000000000000D+00
    0.500000000000D+01 0.752500000000D+02 0.373194116462D-08 0.120760668877D+01
    0.384077429771D-05 0.247597927228D-02 0.120904296637D-04 0.515353966713D+04
    0.547200000000D+06 0.707805156708D-07 0.230543666612D+00-0.186264514923D-08
    0.988322417973D+00 0.159656250000D+03-0.902503718434D+00-0.764353266953D-08
    0.325727853587D-09 0.100000000000D+01 0.223000000000D+04 0.000000000000D+00
    0.200000000000D+01 0.000000000000D+00 0.372529029846D-08 0.500000000000D+01
    0.542137000000D+06 0.400000000000D+01 0.000000000000D+00 0.000000000000D+00
 7 22 10  8  8  0  0.0 0.300788320601D-03-0.363797880709D-11 0.000000000000D+00
    0.153000000000D+03 0.570000000000D+02 0.453054585828D-08 0.347133455250D+00
    0.313483178616D-05 0.164174626116D-01 0.118650496006D-04 0.515363718414D+04
    0.547200000000D+06-0.245869159698D-06-0.291353095038D+01 0.350177288055D-06
    0.951114347422D+00 0.149656250000D+03-0.224092189397D+01-0.822962851135D-08
    0.356086260994D-09 0.100000000000D+01 0.223000000000D+04 0.000000000000D+00
    0.200000000000D+01 0.000000000000D+00-0.111758708954D-07 0.153000000000D+03
    0.540050000000D+06 0.400000000000D+01 0.000000000000D+00 0.000000000000D+00
 8 22 10  8  8  0  0.0-0.879005528986D-04-0.159161572810D-11 0.000000000000D+00
    0.750000000000D+02-0.741562500000D+02 0.454804658725D-08-0.305294127213D+01
   -0.373832881451D-05 0.759147864301D-02 0.905059278011D-05 0.515360172272D+04
    0.547200000000D+06-0.145286321640D-06-0.846028449166D+00-0.111758708954D-07
    0.961749113785D+00 0.207625000000D+03 0.162430942541D+00-0.798426114795D-08
   -0.434660962517D-09 0.100000000000D+01 0.223000000000D+04 0.000000000000D+00
    0.200000000000D+01 0.000000000000D+00 0.512227416039D-08 0.750000000000D+02
    0.540018000000D+06 0.400000000000D+01 0.000000000000D+00 0.000000000000D+00
 9 22 10  8  8  0  0.0-0.286072026938D-03 0.511590769747D-11 0.000000000000D+00
    0.920000000000D+02-0.897812500000D+02 0.462412118464D-08-0.265153788491D+01
   -0.466778874397D-05 0.256762723438D-02 0.902637839317D-05 0.515374775886D+04
    0.547200000000D+06 0.260770320892D-07 0.229835562035D+01 0.335276126862D-07
    0.954953808105D+00 0.204125000000D+03 0.191386912815D+01-0.812105256015D-08
   -0.565023535498D-09 0.100000000000D+01 0.223000000000D+04 0.000000000000D+00
    0.280000000000D+01 0.000000000000D+00 0.139698386192D-08 0.920000000000D+02
    0.540018000000D+06 0.400000000000D+01 0.000000000000D+00 0.000000000000D+00
10 22 10  8  8  0  0.0-0.659562647343D-05-0.170530256582D-11 0.000000000000D+00
    0.500000000000D+02 0.269062500000D+02 0.468126642211D-08-0.101908372015D+01
    0.131689012051D-05 0.799978035502D-02 0.284798443317D-05 0.515367640877D+04
    0.547200000000D+06 0.210478901863D-06 0.126859489208D+01 0.745058059692D-07
    0.975064924762D+00 0.333312500000D+03-0.251044527906D+01-0.836999150088D-08
    0.421446126351D-10 0.100000000000D+01 0.223000000000D+04 0.000000000000D+00
    0.280000000000D+01 0.000000000000D+00 0.232830643654D-08 0.500000000000D+02
    0.540018000000D+06 0.400000000000D+01 0.000000000000D+00 0.000000000000D+00
11 22 10  8  8  0  0.0-0.235242769122D-04-0.409272615798D-11 0.000000000000D+00
    0.140000000000D+03 0.838437500000D+02 0.431375111362D-08 0.284951917190D+01
    0.433996319771D-05 0.764937256463D-03 0.119246542454D-04 0.515365260506D+04
    0.547200000000D+06-0.111758708954D-07 0.277086613038D+00-0.186264514923D-08
    0.964268719537D+00 0.151156250000D+03-0.307031090517D+01-0.794568811266D-08
    0.397159400426D-09 0.100000000000D+01 0.223000000000D+04 0.000000000000D+00
    0.200000000000D+01 0.000000000000D+00-0.838190317154D-08 0.140000000000D+03
    0.543456000000D+06 0.400000000000D+01 0.000000000000D+00 0.000000000000D+00
12 22 10  8  8  0  0.0-0.289749819785D-03-0.443378667114D-11 0.000000000000D+00
    0.112000000000D+03 0.188437500000D+02 0.499556522820D-08-0.368522116322D+00
    0.942498445511D-06 0.853039859794D-02 0.346079468727D-05 0.515371993065D+04
    0.547200000000D+06-0.745058059692D-07-0.179957282787D+01 0.117346644402D-06
    0.967434677606D+00 0.323125000000D+03 0.131758152466D+01-0.862321633443D-08
    0.207865801302D-09 0.100000000000D+01 0.223000000000D+04 0.000000000000D+00
    0.200000000000D+01 0.000000000000D+00-0.125728547573D-07 0.112000000000D+03
    0.543109000000D+06 0.400000000000D+01 0.000000000000D+00 0.000000000000D+00
13 22 10  8  8  0  0.0 0.402089208364D-03 0.704858393874D-11 0.000000000000D+00
    0.440000000000D+02-0.100500000000D+03 0.410909973193D-08 0.273948355616D+01
   -0.518932938576D-05 0.654401909560D-02 0.112801790237D-04 0.515368194962D+04
    0.547200000000D+06 0.819563865662D-07 0.245495341551D+01-0.577419996262D-07
    0.969214324764D+00 0.163781250000D+03 0.943788374060D+00-0.783354058412D-08
   -0.498235039203D-09 0.100000000000D+01 0.223000000000D+04 0.000000000000D+00
    0.200000000000D+01 0.000000000000D+00-0.111758708954D-07 0.440000000000D+02
    0.540051000000D+06 0.400000000000D+01 0.000000000000D+00 0.000000000000D+00
14 22 10  8  8  0  0.0-0.971276313067D-04 0.363797880709D-11 0.000000000000D+00
    0.540000000000D+02 0.181875000000D+02 0.528557730837D-08-0.415670968307D+00
    0.996515154839D-06 0.233102997299D-02 0.297091901302D-05 0.515364974976D+04
    0.547200000000D+06 0.260770320892D-07-0.183461773704D+01-0.558793544769D-08
    0.950833155549D+00 0.315562500000D+03-0.303473093078D+01-0.869000483073D-08
    0.182507602174D-09 0.100000000000D+01 0.223000000000D+04 0.000000000000D+00
    0.200000000000D+01 0.000000000000D+00-0.791624188423D-08 0.310000000000D+03
    0.540052000000D+06 0.400000000000D+01 0.000000000000D+00 0.000000000000D+00
15 22 10  8  8  0  0.0-0.226637348533D-04 0.318323145621D-11 0.000000000000D+00
    0.500000000000D+02-0.118656250000D+03 0.523200364824D-08 0.224237144098D+01
   -0.637583434582D-05 0.146515386878D-01 0.737048685551D-05 0.515362843513D+04
    0.547200000000D+06 0.128522515297D-06 0.218608424739D+01-0.268220901489D-06
    0.930921127413D+00 0.221125000000D+03 0.114444212565D+01-0.844142304772D-08
   -0.598953520247D-09 0.100000000000D+01 0.223000000000D+04 0.000000000000D+00
    0.200000000000D+01 0.000000000000D+00-0.107102096081D-07 0.500000000000D+02
    0.540053000000D+06 0.400000000000D+01 0.000000000000D+00 0.000000000000D+00
16 22 10  8  8  0  0.0-0.525866169483D-03-0.682121026330D-12 0.000000000000D+00
    0.106000000000D+03 0.107812500000D+02 0.483913014062D-08-0.214952753526D+01
    0.225380063057D-06 0.128359643277D-01 0.280328094959D-05 0.515371576691D+04
    0.547200000000D+06 0.158324837685D-06-0.178111257037D+01-0.113621354103D-06
    0.967247416777D+00 0.325781250000D+03 0.734401564762D+00-0.831677499849D-08
    0.277511559470D-09 0.100000000000D+01 0.223000000000D+04 0.000000000000D+00
    0.200000000000D+01 0.000000000000D+00-0.102445483208D-07 0.106000000000D+03
    0.540018000000D+06 0.400000000000D+01 0.000000000000D+00 0.000000000000D+00
17 22 10  8  8  0  0.0 0.666704960167D-03 0.375166564481D-11 0.000000000000D+00
    0.340000000000D+02-0.737187500000D+02 0.415338729097D-08-0.304620314314D+01
   -0.374391674995D-05 0.137887002202D-01 0.101961195469D-04 0.515363455200D+04
    0.547200000000D+06 0.311061739922D-06-0.760559594783D+00 0.122934579849D-06
    0.977189232494D+00 0.186687500000D+03-0.147588320830D+01-0.769389191005D-08
   -0.472876840076D-09 0.100000000000D+01 0.223000000000D+04 0.000000000000D+00
    0.200000000000D+01 0.000000000000D+00-0.111758708954D-07 0.340000000000D+02
    0.540054000000D+06 0.400000000000D+01 0.000000000000D+00 0.000000000000D+00
18 22 10  8  8  0  0.0 0.221282243729D-04-0.131876731757D-10 0.000000000000D+00
    0.122000000000D+03 0.656562500000D+02 0.420160358508D-08 0.122958806427D+01
    0.352598726749D-05 0.290003954433D-02 0.115875154734D-04 0.515372419930D+04
    0.547200000000D+06 0.782310962677D-07 0.243173733276D+00-0.800937414169D-07
    0.972861217152D+00 0.159593750000D+03 0.309029986671D+01-0.791175812791D-08
    0.259653672761D-09 0.100000000000D+01 0.223000000000D+04 0.000000000000D+00
    0.200000000000D+01 0.000000000000D+00-0.838190317154D-08 0.634000000000D+03
    0.540018000000D+06 0.400000000000D+01 0.000000000000D+00 0.000000000000D+00
19 22 10  8  8  0  0.0 0.220976769924D-03 0.500222085975D-11 0.000000000000D+00
    0.470000000000D+02-0.653750000000D+02 0.417231665088D-08-0.911790347271D+00
   -0.349245965481D-05 0.907205580734D-02 0.112596899271D-04 0.515372919655D+04
    0.547200000000D+06-0.521540641785D-07-0.715863771148D+00-0.102445483208D-06
    0.976146858012D+00 0.172687500000D+03 0.219190243351D+01-0.801997692137D-08
   -0.421088968617D-09 0.100000000000D+01 0.223000000000D+04 0.000000000000D+00
    0.200000000000D+01 0.000000000000D+00-0.153668224812D-07 0.470000000000D+02
    0.540055000000D+06 0.400000000000D+01 0.000000000000D+00 0.000000000000D+00
